{"type": "FeatureCollection", "features": [ {"type": "Feature", "properties": {"norad_id": 34976, "name": "COSMOS 2251 DEB", "group": "cosmos-2251-debris", "lat": -22.077655480842274, "lon": -59.91128116853599, "alt_km": 613.033565679687, "timestamp": "2025-12-12T11:38:31.808350+00:00", "meta": {"OBJECT_NAME": "COSMOS 2251 DEB", "OBJECT_ID": "1993-036AFF", "EPOCH": "2025-12-11T22:59:24.604224", "MEAN_MOTION": 14.76537918, "ECCENTRICITY": 0.0047836, "INCLINATION": 74.0576, "RA_OF_ASC_NODE": 307.7776, "ARG_OF_PERICENTER": 354.7076, "MEAN_ANOMALY": 61.5289, "EPHEMERIS_TYPE": 0, "CLASSIFICATION_TYPE": "U", "NORAD_CAT_ID": 34976, "ELEMENT_SET_NO": 999, "REV_AT_EPOCH": 88262, "BSTAR": 0.0023336, "MEAN_MOTION_DOT": 0.00016588, "MEAN_MOTION_DDOT": 0}, "tle": {"line1": "1 34976U 93036AFF 25345.95792366  .00016588  00000+0  23336-2 0  9992", "line2": "2 34976  74.0576 307.7776 0047836 354.7076  61.5289 14.76537918882625"}}, "geometry": {"type": "Point", "coordinates": [-59.91128116853599, -22.077655480842274]}}, {"type": "Feature", "properties": {"norad_id": 34979, "name": "COSMOS 2251 DEB", "group": "cosmos-2251-debris", "lat": 22.43709281219473, "lon": -85.44791587023904, "alt_km": 603.5017456490496, "timestamp": "2025-12-12T11:38:31.808360+00:00", "meta": {"OBJECT_NAME": "COSMOS 2251 DEB", "OBJECT_ID": "1993-036AFJ", "EPOCH": "2025-12-11T11:11:32.589024", "MEAN_MOTION": 14.7931679, "ECCENTRICITY": 0.00490437, "INCLINATION": 74.0395, "RA_OF_ASC_NODE": 269.7685, "ARG_OF_PERICENTER": 347.9199, "MEAN_ANOMALY": 12.0796, "EPHEMERIS_TYPE": 0, "CLASSIFICATION_TYPE": "U", "NORAD_CAT_ID": 34979, "ELEMENT_SET_NO": 999, "REV_AT_EPOCH": 88201, "BSTAR": 0.0026514849, "MEAN_MOTION_DOT": 0.00020168, "MEAN_MOTION_DDOT": 0}, "tle": {"line1": "1 34979U 93036AFJ 25345.46634941  .00020168  00000+0  26515-2 0  9996", "line2": "2 34979  74.0395 269.7685 0049043 347.9199  12.0796 14.79316790882018"}}, "geometry": {"type": "Point", "coordinates": [-85.44791587023904, 22.43709281219473]}}, {"type": "Feature", "properties": {"norad_id": 34990, "name": "COSMOS 2251 DEB", "group": "cosmos-2251-debris", "lat": 18.1564808019375, "lon": 66.4257670989671, "alt_km": 761.1709801010256, "timestamp": "2025-12-12T11:38:31.808370+00:00", "meta": {"OBJECT_NAME": "COSMOS 2251 DEB", "OBJECT_ID": "1993-036AFN", "EPOCH": "2025-12-11T11:35:34.713024", "MEAN_MOTION": 14.42369611, "ECCENTRICITY": 0.001637, "INCLINATION": 74.0455, "RA_OF_ASC_NODE": 253.6657, "ARG_OF_PERICENTER": 317.4187, "MEAN_ANOMALY": 42.5699, "EPHEMERIS_TYPE": 0, "CLASSIFICATION_TYPE": "U", "NORAD_CAT_ID": 34990, "ELEMENT_SET_NO": 999, "REV_AT_EPOCH": 87328, "BSTAR": 0.00064071244, "MEAN_MOTION_DOT": 2.095e-05, "MEAN_MOTION_DDOT": 0}, "tle": {"line1": "1 34990U 93036AFN 25345.48304066  .00002095  00000+0  64071-3 0  9992", "line2": "2 34990  74.0455 253.6657 0016370 317.4187  42.5699 14.42369611873284"}}, "geometry": {"type": "Point", "coordinates": [66.4257670989671, 18.1564808019375]}}, {"type": "Feature", "properties": {"norad_id": 34997, "name": "COSMOS 2251 DEB", "group": "cosmos-2251-debris", "lat": -34.12345910493337, "lon": -59.62216100365746, "alt_km": 690.6684609915519, "timestamp": "2025-12-12T11:38:31.808380+00:00", "meta": {"OBJECT_NAME": "COSMOS 2251 DEB", "OBJECT_ID": "1993-036AFV", "EPOCH": "2025-12-09T15:42:21.613248", "MEAN_MOTION": 14.45493879, "ECCENTRICITY": 0.00979027, "INCLINATION": 73.8812, "RA_OF_ASC_NODE": 317.0047, "ARG_OF_PERICENTER": 292.5764, "MEAN_ANOMALY": 66.5057, "EPHEMERIS_TYPE": 0, "CLASSIFICATION_TYPE": "U", "NORAD_CAT_ID": 34997, "ELEMENT_SET_NO": 999, "REV_AT_EPOCH": 70702, "BSTAR": 0.002944294, "MEAN_MOTION_DOT": 0.00010999, "MEAN_MOTION_DDOT": 0}, "tle": {"line1": "1 34997U 93036AFV 25343.65441682  .00010999  00000+0  29443-2 0  9997", "line2": "2 34997  73.8812 317.0047 0097902 292.5764  66.5057 14.45493879707026"}}, "geometry": {"type": "Point", "coordinates": [-59.62216100365746, -34.12345910493337]}}, {"type": "Feature", "properties": {"norad_id": 34998, "name": "COSMOS 2251 DEB", "group": "cosmos-2251-debris", "lat": -18.58839972915273, "lon": -14.002462559877657, "alt_km": 737.0161838456515, "timestamp": "2025-12-12T11:38:31.808390+00:00", "meta": {"OBJECT_NAME": "COSMOS 2251 DEB", "OBJECT_ID": "1993-036AFW", "EPOCH": "2025-12-11T22:10:47.423136", "MEAN_MOTION": 14.4927461, "ECCENTRICITY": 0.0021167, "INCLINATION": 74.0099, "RA_OF_ASC_NODE": 161.5169, "ARG_OF_PERICENTER": 307.2207, "MEAN_ANOMALY": 206.8589, "EPHEMERIS_TYPE": 0, "CLASSIFICATION_TYPE": "U", "NORAD_CAT_ID": 34998, "ELEMENT_SET_NO": 999, "REV_AT_EPOCH": 87408, "BSTAR": 0.00088598, "MEAN_MOTION_DOT": 3.362e-05, "MEAN_MOTION_DDOT": 0}, "tle": {"line1": "1 34998U 93036AFW 25345.92415999  .00003362  00000+0  88598-3 0  9995", "line2": "2 34998  74.0099 161.5169 0021167 307.2207 206.8589 14.49274610874084"}}, "geometry": {"type": "Point", "coordinates": [-14.002462559877657, -18.58839972915273]}}, {"type": "Feature", "properties": {"norad_id": 35000, "name": "COSMOS 2251 DEB", "group": "cosmos-2251-debris", "lat": 19.56325553945962, "lon": -155.6777257373547, "alt_km": 290.67562407404876, "timestamp": "2025-12-12T11:38:31.808401+00:00", "meta": {"OBJECT_NAME": "COSMOS 2251 DEB", "OBJECT_ID": "1993-036AFY", "EPOCH": "2025-12-10T00:39:45.535104", "MEAN_MOTION": 15.84722247, "ECCENTRICITY": 0.00096992, "INCLINATION": 73.9939, "RA_OF_ASC_NODE": 204.1935, "ARG_OF_PERICENTER": 175.3945, "MEAN_ANOMALY": 184.7377, "EPHEMERIS_TYPE": 0, "CLASSIFICATION_TYPE": "U", "NORAD_CAT_ID": 35000, "ELEMENT_SET_NO": 999, "REV_AT_EPOCH": 88472, "BSTAR": 0.007821664, "MEAN_MOTION_DOT": 0.0209211, "MEAN_MOTION_DDOT": 0}, "tle": {"line1": "1 35000U 93036AFY 25344.02761036  .02092110  00000+0  78217-2 0  9993", "line2": "2 35000  73.9939 204.1935 0009699 175.3945 184.7377 15.84722247884729"}}, "geometry": {"type": "Point", "coordinates": [-155.6777257373547, 19.56325553945962]}}, {"type": "Feature", "properties": {"norad_id": 35012, "name": "COSMOS 2251 DEB", "group": "cosmos-2251-debris", "lat": 4.245137143300937, "lon": -69.00748991407984, "alt_km": 728.6962957917876, "timestamp": "2025-12-12T11:38:31.808411+00:00", "meta": {"OBJECT_NAME": "COSMOS 2251 DEB", "OBJECT_ID": "1993-036AFZ", "EPOCH": "2025-12-12T00:51:32.883264", "MEAN_MOTION": 14.45547305, "ECCENTRICITY": 0.0081657, "INCLINATION": 74.0195, "RA_OF_ASC_NODE": 113.0496, "ARG_OF_PERICENTER": 253.3622, "MEAN_ANOMALY": 105.8559, "EPHEMERIS_TYPE": 0, "CLASSIFICATION_TYPE": "U", "NORAD_CAT_ID": 35012, "ELEMENT_SET_NO": 999, "REV_AT_EPOCH": 87551, "BSTAR": 0.0002889, "MEAN_MOTION_DOT": 1.033e-05, "MEAN_MOTION_DDOT": 0}, "tle": {"line1": "1 35012U 93036AFZ 25346.03579726  .00001033  00000+0  28890-3 0  9997", "line2": "2 35012  74.0195 113.0496 0081657 253.3622 105.8559 14.45547305875510"}}, "geometry": {"type": "Point", "coordinates": [-69.00748991407984, 4.245137143300937]}}, {"type": "Feature", "properties": {"norad_id": 35014, "name": "COSMOS 2251 DEB", "group": "cosmos-2251-debris", "lat": -68.75331316629419, "lon": -88.39946924066821, "alt_km": 647.2505665406379, "timestamp": "2025-12-12T11:38:31.808421+00:00", "meta": {"OBJECT_NAME": "COSMOS 2251 DEB", "OBJECT_ID": "1993-036AGB", "EPOCH": "2025-12-10T11:17:04.408224", "MEAN_MOTION": 14.75108648, "ECCENTRICITY": 0.0007489, "INCLINATION": 73.9993, "RA_OF_ASC_NODE": 47.9831, "ARG_OF_PERICENTER": 224.1256, "MEAN_ANOMALY": 135.932, "EPHEMERIS_TYPE": 0, "CLASSIFICATION_TYPE": "U", "NORAD_CAT_ID": 35014, "ELEMENT_SET_NO": 999, "REV_AT_EPOCH": 71303, "BSTAR": 0.0024781418, "MEAN_MOTION_DOT": 0.00016732, "MEAN_MOTION_DDOT": 0}, "tle": {"line1": "1 35014U 93036AGB 25344.47018991  .00016732  00000+0  24781-2 0  9993", "line2": "2 35014  73.9993  47.9831 0007489 224.1256 135.9320 14.75108648713038"}}, "geometry": {"type": "Point", "coordinates": [-88.39946924066821, -68.75331316629419]}}, {"type": "Feature", "properties": {"norad_id": 35015, "name": "COSMOS 2251 DEB", "group": "cosmos-2251-debris", "lat": -47.018757515520385, "lon": -142.78954250505754, "alt_km": 789.6119890493655, "timestamp": "2025-12-12T11:38:31.808431+00:00", "meta": {"OBJECT_NAME": "COSMOS 2251 DEB", "OBJECT_ID": "1993-036AGC", "EPOCH": "2025-12-08T23:19:05.687904", "MEAN_MOTION": 14.46841193, "ECCENTRICITY": 0.0074204, "INCLINATION": 73.9478, "RA_OF_ASC_NODE": 241.8046, "ARG_OF_PERICENTER": 111.6456, "MEAN_ANOMALY": 265.9615, "EPHEMERIS_TYPE": 0, "CLASSIFICATION_TYPE": "U", "NORAD_CAT_ID": 35015, "ELEMENT_SET_NO": 999, "REV_AT_EPOCH": 65386, "BSTAR": 0.00095869, "MEAN_MOTION_DOT": 3.57e-05, "MEAN_MOTION_DDOT": 0}, "tle": {"line1": "1 35015U 93036AGC 25342.97159361  .00003570  00000+0  95869-3 0  9996", "line2": "2 35015  73.9478 241.8046 0074204 111.6456 265.9615 14.46841193653863"}}, "geometry": {"type": "Point", "coordinates": [-142.78954250505754, -47.018757515520385]}}, {"type": "Feature", "properties": {"norad_id": 35016, "name": "COSMOS 2251 DEB", "group": "cosmos-2251-debris", "lat": -14.823976127689162, "lon": -69.48268997582151, "alt_km": 834.3035293783933, "timestamp": "2025-12-12T11:38:31.808441+00:00", "meta": {"OBJECT_NAME": "COSMOS 2251 DEB", "OBJECT_ID": "1993-036AGD", "EPOCH": "2025-12-11T20:48:12.574944", "MEAN_MOTION": 14.35057734, "ECCENTRICITY": 0.0114569, "INCLINATION": 73.9299, "RA_OF_ASC_NODE": 296.0331, "ARG_OF_PERICENTER": 213.2015, "MEAN_ANOMALY": 177.618, "EPHEMERIS_TYPE": 0, "CLASSIFICATION_TYPE": "U", "NORAD_CAT_ID": 35016, "ELEMENT_SET_NO": 999, "REV_AT_EPOCH": 86770, "BSTAR": 0.00052208, "MEAN_MOTION_DOT": 1.575e-05, "MEAN_MOTION_DDOT": 0}, "tle": {"line1": "1 35016U 93036AGD 25345.86681221  .00001575  00000+0  52208-3 0  9996", "line2": "2 35016  73.9299 296.0331 0114569 213.2015 177.6180 14.35057734867707"}}, "geometry": {"type": "Point", "coordinates": [-69.48268997582151, -14.823976127689162]}}]}